format  = 'OEF2.0'       ! file format
rectype = 'ML'           ! record type (1L/ML)
refsys  = ECLM J2000     ! default reference system
END_OF_HEADER
1
! Equinoctial elements: a, e*sin(LP), e*cos(LP), tan(i/2)*sin(LN), tan(i/2)*cos(LN), mean long.
 EQU   2.7685433705619800E+00   0.033448309350637  -0.070574551146660    0.091561784408670    0.014948683683428 206.8893993792240
 MJD     45034.309896839 TDT
 MAG   3.516  0.150
! Non-grav parameters: model used, actual number in use, dimension
 LSP   0  0    6
! RMS    2.65375E-09   3.14410E-08   2.97758E-08   3.18584E-08   3.18398E-08   2.78739E-06
! EIG   2.40208E-09   2.94324E-08   3.08801E-08   3.14188E-08   3.24364E-08   4.91199E-08
! WEA   0.02118  -0.03078  -0.10175   0.00110  -0.13811   0.98447
 COV   7.042399504031017E-18  7.451303572980131E-18  3.005062301147760E-18
 COV  -6.214809212428585E-19 -1.713415773451333E-18  2.982249614389852E-15
 COV   9.885359582523122E-16  1.905645183311378E-17  1.941839096664976E-17
 COV   1.070032561945450E-17 -2.362905707795624E-15  8.865963549557315E-16
 COV  -4.296531557516514E-18  4.428806533953468E-18 -8.971654001393298E-15
 COV   1.014957331987482E-15  4.271625221681906E-17  4.429938613297165E-16
 COV   1.013771189297164E-15 -1.120003027064260E-14  7.769534572222675E-12
 NOR   1.731979439726610E+17 -1.444951492873887E+15 -1.251403105239897E+15
 NOR   1.777527160924656E+14 -4.567122445177476E+14 -6.903307666269412E+13
 NOR   1.025134054037295E+15 -8.586420422688559E+12 -2.078381829751636E+13
 NOR  -2.920272194935135E+12  8.534573920912189E+11  1.150752784238604E+15
 NOR   2.926175276294725E+12  1.298835458684636E+13  1.825081914829266E+12
 NOR   9.876832123930388E+14 -4.320653390743941E+13 -1.897684621592140E+11
 NOR   1.005573078833567E+15  1.641442694370328E+12  1.599494502072102E+11
